{"type": "FeatureCollection", "features": [ {"type": "Feature", "properties": {"norad_id": 66052, "name": "HRC MONOBLOCK CAMERA", "group": "stations", "lat": 3.66040962932692, "lon": 116.30835417300864, "alt_km": 405.4570122266332, "timestamp": "2025-12-18T08:58:42.136106+00:00", "meta": {"OBJECT_NAME": "HRC MONOBLOCK CAMERA", "OBJECT_ID": "1998-067XR", "EPOCH": "2025-12-17T20:36:55.440000", "MEAN_MOTION": 15.54495982, "ECCENTRICITY": 0.00027135, "INCLINATION": 51.6291, "RA_OF_ASC_NODE": 115.974, "ARG_OF_PERICENTER": 206.7069, "MEAN_ANOMALY": 153.3783, "EPHEMERIS_TYPE": 0, "CLASSIFICATION_TYPE": "U", "NORAD_CAT_ID": 66052, "ELEMENT_SET_NO": 999, "REV_AT_EPOCH": 963, "BSTAR": 0.00045614102, "MEAN_MOTION_DOT": 0.0003024, "MEAN_MOTION_DDOT": 0}, "tle": {"line1": "1 66052U 98067XR  25351.85897500  .00030240  00000+0  45614-3 0  9998", "line2": "2 66052  51.6291 115.9740 0002713 206.7069 153.3783 15.54495982  9635"}}, "geometry": {"type": "Point", "coordinates": [116.30835417300864, 3.66040962932692]}}, {"type": "Feature", "properties": {"norad_id": 66174, "name": "HTV-X1", "group": "stations", "lat": 14.425345143911695, "lon": -77.18318156379081, "alt_km": 416.9654381024802, "timestamp": "2025-12-18T08:58:42.136116+00:00", "meta": {"OBJECT_NAME": "HTV-X1", "OBJECT_ID": "2025-241A", "EPOCH": "2025-12-17T19:54:10.621440", "MEAN_MOTION": 15.49640803, "ECCENTRICITY": 0.00031686, "INCLINATION": 51.6309, "RA_OF_ASC_NODE": 117.2752, "ARG_OF_PERICENTER": 263.8701, "MEAN_ANOMALY": 96.1927, "EPHEMERIS_TYPE": 0, "CLASSIFICATION_TYPE": "U", "NORAD_CAT_ID": 66174, "ELEMENT_SET_NO": 999, "REV_AT_EPOCH": 51, "BSTAR": 0.00014328078, "MEAN_MOTION_DOT": 7.629e-05, "MEAN_MOTION_DDOT": 0}, "tle": {"line1": "1 66174U 25241A   25351.82928960  .00007629  00000+0  14328-3 0  9992", "line2": "2 66174  51.6309 117.2752 0003168 263.8701  96.1927 15.49640803   510"}}, "geometry": {"type": "Point", "coordinates": [-77.18318156379081, 14.425345143911695]}}, {"type": "Feature", "properties": {"norad_id": 66515, "name": "SZ-21 MODULE", "group": "stations", "lat": 39.3321997367224, "lon": 93.6002672896357, "alt_km": 377.23449323676505, "timestamp": "2025-12-18T08:58:42.136126+00:00", "meta": {"OBJECT_NAME": "SZ-21 MODULE", "OBJECT_ID": "2025-246C", "EPOCH": "2025-12-17T06:26:59.040960", "MEAN_MOTION": 15.62718015, "ECCENTRICITY": 0.00059901, "INCLINATION": 41.4771, "RA_OF_ASC_NODE": 348.414, "ARG_OF_PERICENTER": 284.3104, "MEAN_ANOMALY": 75.707, "EPHEMERIS_TYPE": 0, "CLASSIFICATION_TYPE": "U", "NORAD_CAT_ID": 66515, "ELEMENT_SET_NO": 999, "REV_AT_EPOCH": 515, "BSTAR": 0.00025031156, "MEAN_MOTION_DOT": 0.00022864, "MEAN_MOTION_DDOT": 0}, "tle": {"line1": "1 66515U 25246C   25351.26873890  .00022864  00000+0  25031-3 0  9996", "line2": "2 66515  41.4771 348.4140 0005990 284.3104  75.7070 15.62718015  5151"}}, "geometry": {"type": "Point", "coordinates": [93.6002672896357, 39.3321997367224]}}, {"type": "Feature", "properties": {"norad_id": 66645, "name": "SHENZHOU-22", "group": "stations", "lat": 30.097084416281447, "lon": 121.47321821912384, "alt_km": 381.1450581386771, "timestamp": "2025-12-18T08:58:42.136137+00:00", "meta": {"OBJECT_NAME": "SHENZHOU-22", "OBJECT_ID": "2025-272A", "EPOCH": "2025-12-17T17:03:03.263616", "MEAN_MOTION": 15.59389869, "ECCENTRICITY": 0.00077031, "INCLINATION": 41.4683, "RA_OF_ASC_NODE": 346.526, "ARG_OF_PERICENTER": 74.1787, "MEAN_ANOMALY": 285.99, "EPHEMERIS_TYPE": 0, "CLASSIFICATION_TYPE": "U", "NORAD_CAT_ID": 66645, "ELEMENT_SET_NO": 999, "REV_AT_EPOCH": 26357, "BSTAR": 0.00025361987, "MEAN_MOTION_DOT": 0.0002035, "MEAN_MOTION_DDOT": 0}, "tle": {"line1": "1 66645U 25272A   25351.71045444  .00020350  00000+0  25362-3 0  9990", "line2": "2 66645  41.4683 346.5260 0007703  74.1787 285.9900 15.59389869263571"}}, "geometry": {"type": "Point", "coordinates": [121.47321821912384, 30.097084416281447]}}, {"type": "Feature", "properties": {"norad_id": 66664, "name": "SOYUZ-MS 28", "group": "stations", "lat": 14.425343606137927, "lon": -77.18318023876441, "alt_km": 416.9654382659228, "timestamp": "2025-12-18T08:58:42.136147+00:00", "meta": {"OBJECT_NAME": "SOYUZ-MS 28", "OBJECT_ID": "2025-275A", "EPOCH": "2025-12-17T19:54:10.621440", "MEAN_MOTION": 15.49640803, "ECCENTRICITY": 0.00031686, "INCLINATION": 51.6309, "RA_OF_ASC_NODE": 117.2752, "ARG_OF_PERICENTER": 263.8701, "MEAN_ANOMALY": 96.1927, "EPHEMERIS_TYPE": 0, "CLASSIFICATION_TYPE": "U", "NORAD_CAT_ID": 66664, "ELEMENT_SET_NO": 999, "REV_AT_EPOCH": 128, "BSTAR": 0.00014328078, "MEAN_MOTION_DOT": 7.629e-05, "MEAN_MOTION_DDOT": 0}, "tle": {"line1": "1 66664U 25275A   25351.82928960  .00007629  00000+0  14328-3 0  9993", "line2": "2 66664  51.6309 117.2752 0003168 263.8701  96.1927 15.49640803  1289"}}, "geometry": {"type": "Point", "coordinates": [-77.18318023876441, 14.425343606137927]}}, {"type": "Feature", "properties": {"norad_id": 66906, "name": "1998-067XS", "group": "stations", "lat": -25.861595664109384, "lon": -42.94698120366822, "alt_km": 415.5182128117194, "timestamp": "2025-12-18T08:58:42.136157+00:00", "meta": {"OBJECT_NAME": "1998-067XS", "OBJECT_ID": "1998-067XS", "EPOCH": "2025-12-17T16:35:43.301760", "MEAN_MOTION": 15.50834133, "ECCENTRICITY": 0.0003138, "INCLINATION": 51.6309, "RA_OF_ASC_NODE": 117.8563, "ARG_OF_PERICENTER": 226.0893, "MEAN_ANOMALY": 133.9837, "EPHEMERIS_TYPE": 0, "CLASSIFICATION_TYPE": "U", "NORAD_CAT_ID": 66906, "ELEMENT_SET_NO": 999, "REV_AT_EPOCH": 238, "BSTAR": 0.00042869394, "MEAN_MOTION_DOT": 0.00024822, "MEAN_MOTION_DDOT": 0}, "tle": {"line1": "1 66906U 98067XS  25351.69147340  .00024822  00000+0  42869-3 0  9996", "line2": "2 66906  51.6309 117.8563 0003138 226.0893 133.9837 15.50834133  2389"}}, "geometry": {"type": "Point", "coordinates": [-42.94698120366822, -25.861595664109384]}}, {"type": "Feature", "properties": {"norad_id": 66907, "name": "1998-067XT", "group": "stations", "lat": -47.85728701193379, "lon": -4.501899696554917, "alt_km": 412.32092137434574, "timestamp": "2025-12-18T08:58:42.136167+00:00", "meta": {"OBJECT_NAME": "1998-067XT", "OBJECT_ID": "1998-067XT", "EPOCH": "2025-12-17T19:32:19.947264", "MEAN_MOTION": 15.52074588, "ECCENTRICITY": 0.00039845, "INCLINATION": 51.6304, "RA_OF_ASC_NODE": 117.1744, "ARG_OF_PERICENTER": 257.0045, "MEAN_ANOMALY": 103.05, "EPHEMERIS_TYPE": 0, "CLASSIFICATION_TYPE": "U", "NORAD_CAT_ID": 66907, "ELEMENT_SET_NO": 999, "REV_AT_EPOCH": 240, "BSTAR": 0.00089323104, "MEAN_MOTION_DOT": 0.00054815, "MEAN_MOTION_DDOT": 0}, "tle": {"line1": "1 66907U 98067XT  25351.81411976  .00054815  00000+0  89323-3 0  9991", "line2": "2 66907  51.6304 117.1744 0003984 257.0045 103.0500 15.52074588  2401"}}, "geometry": {"type": "Point", "coordinates": [-4.501899696554917, -47.85728701193379]}}, {"type": "Feature", "properties": {"norad_id": 66908, "name": "1998-067XU", "group": "stations", "lat": -49.14037830328489, "lon": 0.7232245558558086, "alt_km": 411.97445385292303, "timestamp": "2025-12-18T08:58:42.136177+00:00", "meta": {"OBJECT_NAME": "1998-067XU", "OBJECT_ID": "1998-067XU", "EPOCH": "2025-12-17T14:53:17.519424", "MEAN_MOTION": 15.52149323, "ECCENTRICITY": 0.00041086, "INCLINATION": 51.6303, "RA_OF_ASC_NODE": 118.1303, "ARG_OF_PERICENTER": 254.9738, "MEAN_ANOMALY": 105.0797, "EPHEMERIS_TYPE": 0, "CLASSIFICATION_TYPE": "U", "NORAD_CAT_ID": 66908, "ELEMENT_SET_NO": 999, "REV_AT_EPOCH": 237, "BSTAR": 0.00089135269, "MEAN_MOTION_DOT": 0.00054848, "MEAN_MOTION_DDOT": 0}, "tle": {"line1": "1 66908U 98067XU  25351.62034166  .00054848  00000+0  89135-3 0  9990", "line2": "2 66908  51.6303 118.1303 0004108 254.9738 105.0797 15.52149323  2373"}}, "geometry": {"type": "Point", "coordinates": [0.7232245558558086, -49.14037830328489]}}, {"type": "Feature", "properties": {"norad_id": 66909, "name": "SILVERSAT", "group": "stations", "lat": -50.37588270979664, "lon": 7.485784973181916, "alt_km": 411.6654081226188, "timestamp": "2025-12-18T08:58:42.136187+00:00", "meta": {"OBJECT_NAME": "SILVERSAT", "OBJECT_ID": "1998-067XV", "EPOCH": "2025-12-17T14:52:13.125504", "MEAN_MOTION": 15.52286885, "ECCENTRICITY": 0.00039934, "INCLINATION": 51.6308, "RA_OF_ASC_NODE": 118.1251, "ARG_OF_PERICENTER": 257.3923, "MEAN_ANOMALY": 102.662, "EPHEMERIS_TYPE": 0, "CLASSIFICATION_TYPE": "U", "NORAD_CAT_ID": 66909, "ELEMENT_SET_NO": 999, "REV_AT_EPOCH": 237, "BSTAR": 0.00095195038, "MEAN_MOTION_DOT": 0.00058931, "MEAN_MOTION_DDOT": 0}, "tle": {"line1": "1 66909U 98067XV  25351.61959636  .00058931  00000+0  95195-3 0  9998", "line2": "2 66909  51.6308 118.1251 0003993 257.3923 102.6620 15.52286885  2378"}}, "geometry": {"type": "Point", "coordinates": [7.485784973181916, -50.37588270979664]}}, {"type": "Feature", "properties": {"norad_id": 66910, "name": "1998-067XW", "group": "stations", "lat": -51.60383243569246, "lon": 23.125749148437077, "alt_km": 411.73702965322354, "timestamp": "2025-12-18T08:58:42.136196+00:00", "meta": {"OBJECT_NAME": "1998-067XW", "OBJECT_ID": "1998-067XW", "EPOCH": "2025-12-17T14:49:41.645568", "MEAN_MOTION": 15.52327753, "ECCENTRICITY": 0.00045296, "INCLINATION": 51.6302, "RA_OF_ASC_NODE": 118.1137, "ARG_OF_PERICENTER": 233.5237, "MEAN_ANOMALY": 126.5336, "EPHEMERIS_TYPE": 0, "CLASSIFICATION_TYPE": "U", "NORAD_CAT_ID": 66910, "ELEMENT_SET_NO": 999, "REV_AT_EPOCH": 237, "BSTAR": 0.00083127757, "MEAN_MOTION_DOT": 0.00051432, "MEAN_MOTION_DDOT": 0}, "tle": {"line1": "1 66910U 98067XW  25351.61784312  .00051432  00000+0  83128-3 0  9999", "line2": "2 66910  51.6302 118.1137 0004529 233.5237 126.5336 15.52327753  2376"}}, "geometry": {"type": "Point", "coordinates": [23.125749148437077, -51.60383243569246]}}]}